[
    {
        "OBJECT_NAME": "SL-14 R/B",
        "OBJECT_ID": "1987-024B",
        "EPOCH": "2026-05-23T17:03:02.397024",
        "MEAN_MOTION": 14.86194204,
        "ECCENTRICITY": 0.0018672,
        "INCLINATION": 82.5296,
        "RA_OF_ASC_NODE": 22.2568,
        "ARG_OF_PERICENTER": 17.1358,
        "MEAN_ANOMALY": 343.0485,
        "EPHEMERIS_TYPE": 0,
        "CLASSIFICATION_TYPE": "U",
        "NORAD_CAT_ID": 17567,
        "ELEMENT_SET_NO": 999,
        "REV_AT_EPOCH": 9927,
        "BSTAR": 2.6717e-05,
        "MEAN_MOTION_DOT": 2.6e-06,
        "MEAN_MOTION_DDOT": 0
    },
    {
        "OBJECT_NAME": "COSMOS 1833",
        "OBJECT_ID": "1987-027A",
        "EPOCH": "2026-05-23T18:09:19.134144",
        "MEAN_MOTION": 14.13034281,
        "ECCENTRICITY": 0.0022414,
        "INCLINATION": 70.9136,
        "RA_OF_ASC_NODE": 168.224,
        "ARG_OF_PERICENTER": 95.7561,
        "MEAN_ANOMALY": 264.6117,
        "EPHEMERIS_TYPE": 0,
        "CLASSIFICATION_TYPE": "U",
        "NORAD_CAT_ID": 17589,
        "ELEMENT_SET_NO": 999,
        "REV_AT_EPOCH": 2092,
        "BSTAR": 9.5768e-05,
        "MEAN_MOTION_DOT": 1.31e-06,
        "MEAN_MOTION_DDOT": 0
    },
    {
        "OBJECT_NAME": "SL-16 R/B",
        "OBJECT_ID": "1987-027B",
        "EPOCH": "2026-05-23T15:40:03.387072",
        "MEAN_MOTION": 14.17170399,
        "ECCENTRICITY": 0.0005267,
        "INCLINATION": 70.9997,
        "RA_OF_ASC_NODE": 118.5281,
        "ARG_OF_PERICENTER": 342.0848,
        "MEAN_ANOMALY": 18.0089,
        "EPHEMERIS_TYPE": 0,
        "CLASSIFICATION_TYPE": "U",
        "NORAD_CAT_ID": 17590,
        "ELEMENT_SET_NO": 999,
        "REV_AT_EPOCH": 2596,
        "BSTAR": -5.6322e-05,
        "MEAN_MOTION_DOT": -1.62e-06,
        "MEAN_MOTION_DDOT": 0
    },
    {
        "OBJECT_NAME": "SL-14 R/B",
        "OBJECT_ID": "1987-038B",
        "EPOCH": "2026-05-23T17:51:10.888128",
        "MEAN_MOTION": 14.85427681,
        "ECCENTRICITY": 0.001767,
        "INCLINATION": 82.5026,
        "RA_OF_ASC_NODE": 226.094,
        "ARG_OF_PERICENTER": 277.023,
        "MEAN_ANOMALY": 82.8976,
        "EPHEMERIS_TYPE": 0,
        "CLASSIFICATION_TYPE": "U",
        "NORAD_CAT_ID": 17912,
        "ELEMENT_SET_NO": 999,
        "REV_AT_EPOCH": 9037,
        "BSTAR": 2.4995e-05,
        "MEAN_MOTION_DOT": 2.4e-06,
        "MEAN_MOTION_DDOT": 0
    },
    {
        "OBJECT_NAME": "COSMOS 1844",
        "OBJECT_ID": "1987-041A",
        "EPOCH": "2026-05-23T17:03:38.652192",
        "MEAN_MOTION": 14.14566207,
        "ECCENTRICITY": 0.0033064,
        "INCLINATION": 70.8999,
        "RA_OF_ASC_NODE": 235.9328,
        "ARG_OF_PERICENTER": 269.8894,
        "MEAN_ANOMALY": 89.8439,
        "EPHEMERIS_TYPE": 0,
        "CLASSIFICATION_TYPE": "U",
        "NORAD_CAT_ID": 17973,
        "ELEMENT_SET_NO": 999,
        "REV_AT_EPOCH": 1419,
        "BSTAR": 0.00014858,
        "MEAN_MOTION_DOT": 2.38e-06,
        "MEAN_MOTION_DDOT": 0
    },
    {
        "OBJECT_NAME": "SL-14 R/B",
        "OBJECT_ID": "1987-055B",
        "EPOCH": "2026-05-23T20:13:06.911904",
        "MEAN_MOTION": 14.85689014,
        "ECCENTRICITY": 0.0021949,
        "INCLINATION": 82.4983,
        "RA_OF_ASC_NODE": 278.1784,
        "ARG_OF_PERICENTER": 122.9582,
        "MEAN_ANOMALY": 237.3748,
        "EPHEMERIS_TYPE": 0,
        "CLASSIFICATION_TYPE": "U",
        "NORAD_CAT_ID": 18153,
        "ELEMENT_SET_NO": 999,
        "REV_AT_EPOCH": 8109,
        "BSTAR": 3.9143e-05,
        "MEAN_MOTION_DOT": 3.65e-06,
        "MEAN_MOTION_DDOT": 0
    },
    {
        "OBJECT_NAME": "COSMOS 1867",
        "OBJECT_ID": "1987-060A",
        "EPOCH": "2026-05-23T19:43:06.138048",
        "MEAN_MOTION": 14.3151272,
        "ECCENTRICITY": 0.0016001,
        "INCLINATION": 65.0099,
        "RA_OF_ASC_NODE": 96.2943,
        "ARG_OF_PERICENTER": 281.8446,
        "MEAN_ANOMALY": 78.0844,
        "EPHEMERIS_TYPE": 0,
        "CLASSIFICATION_TYPE": "U",
        "NORAD_CAT_ID": 18187,
        "ELEMENT_SET_NO": 999,
        "REV_AT_EPOCH": 3069,
        "BSTAR": 1.6853e-05,
        "MEAN_MOTION_DOT": -5.5e-07,
        "MEAN_MOTION_DDOT": 0
    },
    {
        "OBJECT_NAME": "SL-14 R/B",
        "OBJECT_ID": "1988-001B",
        "EPOCH": "2026-05-23T10:31:41.437056",
        "MEAN_MOTION": 14.85587515,
        "ECCENTRICITY": 0.0017892,
        "INCLINATION": 82.5111,
        "RA_OF_ASC_NODE": 125.057,
        "ARG_OF_PERICENTER": 356.5152,
        "MEAN_ANOMALY": 3.5936,
        "EPHEMERIS_TYPE": 0,
        "CLASSIFICATION_TYPE": "U",
        "NORAD_CAT_ID": 18749,
        "ELEMENT_SET_NO": 999,
        "REV_AT_EPOCH": 5312,
        "BSTAR": 3.5416e-05,
        "MEAN_MOTION_DOT": 3.31e-06,
        "MEAN_MOTION_DDOT": 0
    },
    {
        "OBJECT_NAME": "COSMOS 1933",
        "OBJECT_ID": "1988-020A",
        "EPOCH": "2026-05-23T14:12:31.398048",
        "MEAN_MOTION": 15.18540871,
        "ECCENTRICITY": 0.0002475,
        "INCLINATION": 82.5126,
        "RA_OF_ASC_NODE": 176.7887,
        "ARG_OF_PERICENTER": 316.4901,
        "MEAN_ANOMALY": 43.6137,
        "EPHEMERIS_TYPE": 0,
        "CLASSIFICATION_TYPE": "U",
        "NORAD_CAT_ID": 18958,
        "ELEMENT_SET_NO": 999,
        "REV_AT_EPOCH": 6159,
        "BSTAR": 9.2833e-05,
        "MEAN_MOTION_DOT": 1.947e-05,
        "MEAN_MOTION_DDOT": 0
    },
    {
        "OBJECT_NAME": "SL-3 R/B",
        "OBJECT_ID": "1988-032B",
        "EPOCH": "2026-05-23T19:57:24.318144",
        "MEAN_MOTION": 15.20616878,
        "ECCENTRICITY": 0.0024753,
        "INCLINATION": 97.5247,
        "RA_OF_ASC_NODE": 126.903,
        "ARG_OF_PERICENTER": 335.9188,
        "MEAN_ANOMALY": 24.0888,
        "EPHEMERIS_TYPE": 0,
        "CLASSIFICATION_TYPE": "U",
        "NORAD_CAT_ID": 19046,
        "ELEMENT_SET_NO": 999,
        "REV_AT_EPOCH": 6352,
        "BSTAR": 0.00017533,
        "MEAN_MOTION_DOT": 3.803e-05,
        "MEAN_MOTION_DDOT": 0
    },
    {
        "OBJECT_NAME": "SL-16 R/B",
        "OBJECT_ID": "1988-039B",
        "EPOCH": "2026-05-23T17:46:57.083808",
        "MEAN_MOTION": 14.19626585,
        "ECCENTRICITY": 0.0023471,
        "INCLINATION": 71.0149,
        "RA_OF_ASC_NODE": 269.8485,
        "ARG_OF_PERICENTER": 228.6621,
        "MEAN_ANOMALY": 131.2486,
        "EPHEMERIS_TYPE": 0,
        "CLASSIFICATION_TYPE": "U",
        "NORAD_CAT_ID": 19120,
        "ELEMENT_SET_NO": 999,
        "REV_AT_EPOCH": 96903,
        "BSTAR": 8.6169e-05,
        "MEAN_MOTION_DOT": 1.34e-06,
        "MEAN_MOTION_DDOT": 0
    },
    {
        "OBJECT_NAME": "COSMOS 1953",
        "OBJECT_ID": "1988-050A",
        "EPOCH": "2026-05-23T21:10:25.582656",
        "MEAN_MOTION": 15.29578065,
        "ECCENTRICITY": 0.0009523,
        "INCLINATION": 82.5072,
        "RA_OF_ASC_NODE": 82.5329,
        "ARG_OF_PERICENTER": 208.2371,
        "MEAN_ANOMALY": 151.8354,
        "EPHEMERIS_TYPE": 0,
        "CLASSIFICATION_TYPE": "U",
        "NORAD_CAT_ID": 19210,
        "ELEMENT_SET_NO": 999,
        "REV_AT_EPOCH": 4927,
        "BSTAR": 0.0002041,
        "MEAN_MOTION_DOT": 5.889e-05,
        "MEAN_MOTION_DDOT": 0
    },
    {
        "OBJECT_NAME": "SL-8 R/B",
        "OBJECT_ID": "1988-053B",
        "EPOCH": "2026-05-23T21:20:30.437088",
        "MEAN_MOTION": 14.38954357,
        "ECCENTRICITY": 0.0019564,
        "INCLINATION": 74.0475,
        "RA_OF_ASC_NODE": 333.849,
        "ARG_OF_PERICENTER": 137.7556,
        "MEAN_ANOMALY": 324.8085,
        "EPHEMERIS_TYPE": 0,
        "CLASSIFICATION_TYPE": "U",
        "NORAD_CAT_ID": 19257,
        "ELEMENT_SET_NO": 999,
        "REV_AT_EPOCH": 98741,
        "BSTAR": 7.5067e-05,
        "MEAN_MOTION_DOT": 2.06e-06,
        "MEAN_MOTION_DDOT": 0
    }
]