SL-14 R/B               
1 17567U 87024B   26143.71044441  .00000260  00000+0  26717-4 0  9992
2 17567  82.5296  22.2568 0018672  17.1358 343.0485 14.86194204 99277
COSMOS 1833             
1 17589U 87027A   26143.75647146  .00000131  00000+0  95768-4 0  9993
2 17589  70.9136 168.2240 0022414  95.7561 264.6117 14.13034281 20924
SL-16 R/B               
1 17590U 87027B   26143.65281698 -.00000162  00000+0 -56322-4 0  9999
2 17590  70.9997 118.5281 0005267 342.0848  18.0089 14.17170399 25960
SL-14 R/B               
1 17912U 87038B   26143.74387602  .00000240  00000+0  24995-4 0  9997
2 17912  82.5026 226.0940 0017670 277.0230  82.8976 14.85427681 90375
COSMOS 1844             
1 17973U 87041A   26143.71086403  .00000238  00000+0  14858-3 0  9993
2 17973  70.8999 235.9328 0033064 269.8894  89.8439 14.14566207 14197
SL-14 R/B               
1 18153U 87055B   26143.84244111  .00000365  00000+0  39143-4 0  9991
2 18153  82.4983 278.1784 0021949 122.9582 237.3748 14.85689014 81093
COSMOS 1867             
1 18187U 87060A   26143.82159882 -.00000055  00000+0  16853-4 0  9992
2 18187  65.0099  96.2943 0016001 281.8446  78.0844 14.31512720 30695
SL-14 R/B               
1 18749U 88001B   26143.43867404  .00000331  00000+0  35416-4 0  9997
2 18749  82.5111 125.0570 0017892 356.5152   3.5936 14.85587515 53129
COSMOS 1933             
1 18958U 88020A   26143.59203007  .00001947  00000+0  92833-4 0  9990
2 18958  82.5126 176.7887 0002475 316.4901  43.6137 15.18540871 61598
SL-3 R/B                
1 19046U 88032B   26143.83153146  .00003803  00000+0  17533-3 0  9993
2 19046  97.5247 126.9030 0024753 335.9188  24.0888 15.20616878 63525
SL-16 R/B               
1 19120U 88039B   26143.74093847  .00000134  00000+0  86169-4 0  9990
2 19120  71.0149 269.8485 0023471 228.6621 131.2486 14.19626585969032
COSMOS 1953             
1 19210U 88050A   26143.88224054  .00005889  00000+0  20410-3 0  9992
2 19210  82.5072  82.5329 0009523 208.2371 151.8354 15.29578065 49277
SL-8 R/B                
1 19257U 88053B   26143.88924117  .00000206  00000+0  75067-4 0  9990
2 19257  74.0475 333.8490 0019564 137.7556 324.8085 14.38954357987410
